{
  "type": "FeatureCollection",
  "features": [
    {
      "type": "Feature",
      "properties": {
        "norad_id": 43262,
        "name": "GAOFEN-1 04",
        "group": "resource",
        "lat": 8.774752660264383,
        "lon": -120.09715009444946,
        "alt_km": 642.5075001180721,
        "timestamp": "2025-12-26T19:22:38.551745+00:00",
        "meta_object_name": "GAOFEN-1 04",
        "meta_object_id": "2018-031D",
        "meta_epoch": "2025-12-26T15:21:08.079840",
        "meta_mean_motion": 14.76434157,
        "meta_eccentricity": 4.897e-05,
        "meta_inclination": 98.0784,
        "meta_ra_of_asc_node": 58.4789,
        "meta_arg_of_pericenter": 63.0256,
        "meta_mean_anomaly": 297.1003,
        "meta_ephemeris_type": 0,
        "meta_classification_type": "U",
        "meta_norad_cat_id": 43262,
        "meta_element_set_no": 999,
        "meta_rev_at_epoch": 41722,
        "meta_bstar": 0.00013983181,
        "meta_mean_motion_dot": 9.21e-06,
        "meta_mean_motion_ddot": 0,
        "tle_line1": "1 43262U 18031D   25360.63967685  .00000921  00000+0  13983-3 0  9994",
        "tle_line2": "2 43262  98.0784  58.4789 0000489  63.0256 297.1003 14.76434157417229"
      },
      "geometry": {
        "type": "Point",
        "coordinates": [
          -120.09715009444946,
          8.774752660264383
        ]
      }
    },
    {
      "type": "Feature",
      "properties": {
        "norad_id": 43437,
        "name": "SENTINEL-3B",
        "group": "resource",
        "lat": -15.371380064774684,
        "lon": 68.18117686735413,
        "alt_km": 807.597999501706,
        "timestamp": "2025-12-26T19:22:38.551761+00:00",
        "meta_object_name": "SENTINEL-3B",
        "meta_object_id": "2018-039A",
        "meta_epoch": "2025-12-26T14:24:02.704320",
        "meta_mean_motion": 14.26739349,
        "meta_eccentricity": 0.00015746,
        "meta_inclination": 98.6249,
        "meta_ra_of_asc_node": 65.5855,
        "meta_arg_of_pericenter": 88.1106,
        "meta_mean_anomaly": 272.0255,
        "meta_ephemeris_type": 0,
        "meta_classification_type": "U",
        "meta_norad_cat_id": 43437,
        "meta_element_set_no": 999,
        "meta_rev_at_epoch": 39951,
        "meta_bstar": 7.7966348e-05,
        "meta_mean_motion_dot": 1.45e-06,
        "meta_mean_motion_ddot": 0,
        "tle_line1": "1 43437U 18039A   25360.60003130  .00000145  00000+0  77966-4 0  9999",
        "tle_line2": "2 43437  98.6249  65.5855 0001574  88.1106 272.0255 14.26739349399514"
      },
      "geometry": {
        "type": "Point",
        "coordinates": [
          68.18117686735413,
          -15.371380064774684
        ]
      }
    },
    {
      "type": "Feature",
      "properties": {
        "norad_id": 43461,
        "name": "GAOFEN-5 01",
        "group": "resource",
        "lat": -55.982229138925895,
        "lon": 131.32207890521548,
        "alt_km": 698.4399099119819,
        "timestamp": "2025-12-26T19:22:38.551772+00:00",
        "meta_object_name": "GAOFEN-5 01",
        "meta_object_id": "2018-043A",
        "meta_epoch": "2025-12-26T15:00:26.684640",
        "meta_mean_motion": 14.60424553,
        "meta_eccentricity": 5.866e-05,
        "meta_inclination": 98.4347,
        "meta_ra_of_asc_node": 323.8365,
        "meta_arg_of_pericenter": 227.6847,
        "meta_mean_anomaly": 132.4303,
        "meta_ephemeris_type": 0,
        "meta_classification_type": "U",
        "meta_norad_cat_id": 43461,
        "meta_element_set_no": 999,
        "meta_rev_at_epoch": 40650,
        "meta_bstar": 0.00011541264,
        "meta_mean_motion_dot": 5.1e-06,
        "meta_mean_motion_ddot": 0,
        "tle_line1": "1 43461U 18043A   25360.62530885  .00000510  00000+0  11541-3 0  9997",
        "tle_line2": "2 43461  98.4347 323.8365 0000586 227.6847 132.4303 14.60424553406505"
      },
      "geometry": {
        "type": "Point",
        "coordinates": [
          131.32207890521548,
          -55.982229138925895
        ]
      }
    },
    {
      "type": "Feature",
      "properties": {
        "norad_id": 43484,
        "name": "GAOFEN-6",
        "group": "resource",
        "lat": -31.016064900160632,
        "lon": 69.3285155379272,
        "alt_km": 640.8392523626862,
        "timestamp": "2025-12-26T19:22:38.551782+00:00",
        "meta_object_name": "GAOFEN-6",
        "meta_object_id": "2018-048A",
        "meta_epoch": "2025-12-26T14:38:22.819776",
        "meta_mean_motion": 14.76591406,
        "meta_eccentricity": 0.00124825,
        "meta_inclination": 97.8008,
        "meta_ra_of_asc_node": 64.4099,
        "meta_arg_of_pericenter": 22.1846,
        "meta_mean_anomaly": 337.9902,
        "meta_ephemeris_type": 0,
        "meta_classification_type": "U",
        "meta_norad_cat_id": 43484,
        "meta_element_set_no": 999,
        "meta_rev_at_epoch": 40792,
        "meta_bstar": 0.00017870556,
        "meta_mean_motion_dot": 1.199e-05,
        "meta_mean_motion_ddot": 0,
        "tle_line1": "1 43484U 18048A   25360.60998634  .00001199  00000+0  17871-3 0  9991",
        "tle_line2": "2 43484  97.8008  64.4099 0012482  22.1846 337.9902 14.76591406407927"
      },
      "geometry": {
        "type": "Point",
        "coordinates": [
          69.3285155379272,
          -31.016064900160632
        ]
      }
    },
    {
      "type": "Feature",
      "properties": {
        "norad_id": 43585,
        "name": "GAOFEN-11 01",
        "group": "resource",
        "lat": -37.64687424912921,
        "lon": -121.93404834927432,
        "alt_km": 421.8485088506586,
        "timestamp": "2025-12-26T19:22:38.551792+00:00",
        "meta_object_name": "GAOFEN-11 01",
        "meta_object_id": "2018-063A",
        "meta_epoch": "2025-12-26T15:20:24.312192",
        "meta_mean_motion": 15.49619121,
        "meta_eccentricity": 0.00039522,
        "meta_inclination": 97.1539,
        "meta_ra_of_asc_node": 63.4592,
        "meta_arg_of_pericenter": 241.5377,
        "meta_mean_anomaly": 118.5477,
        "meta_ephemeris_type": 0,
        "meta_classification_type": "U",
        "meta_norad_cat_id": 43585,
        "meta_element_set_no": 999,
        "meta_rev_at_epoch": 41357,
        "meta_bstar": 0.00035132199,
        "meta_mean_motion_dot": 0.00019361,
        "meta_mean_motion_ddot": 0,
        "tle_line1": "1 43585U 18063A   25360.63917028  .00019361  00000+0  35132-3 0  9991",
        "tle_line2": "2 43585  97.1539  63.4592 0003952 241.5377 118.5477 15.49619121413570"
      },
      "geometry": {
        "type": "Point",
        "coordinates": [
          -121.93404834927432,
          -37.64687424912921
        ]
      }
    },
    {
      "type": "Feature",
      "properties": {
        "norad_id": 43613,
        "name": "ICESAT-2",
        "group": "resource",
        "lat": -39.169174971634945,
        "lon": -113.8319244380686,
        "alt_km": 489.45432421902296,
        "timestamp": "2025-12-26T19:22:38.551804+00:00",
        "meta_object_name": "ICESAT-2",
        "meta_object_id": "2018-070A",
        "meta_epoch": "2025-12-26T14:50:02.998464",
        "meta_mean_motion": 15.28274271,
        "meta_eccentricity": 0.00032114,
        "meta_inclination": 92.0036,
        "meta_ra_of_asc_node": 244.4827,
        "meta_arg_of_pericenter": 108.7105,
        "meta_mean_anomaly": 251.4493,
        "meta_ephemeris_type": 0,
        "meta_classification_type": "U",
        "meta_norad_cat_id": 43613,
        "meta_element_set_no": 999,
        "meta_rev_at_epoch": 40610,
        "meta_bstar": 0.00047667048,
        "meta_mean_motion_dot": 0.00013131,
        "meta_mean_motion_ddot": 0,
        "tle_line1": "1 43613U 18070A   25360.61809026  .00013131  00000+0  47667-3 0  9992",
        "tle_line2": "2 43613  92.0036 244.4827 0003211 108.7105 251.4493 15.28274271406107"
      },
      "geometry": {
        "type": "Point",
        "coordinates": [
          -113.8319244380686,
          -39.169174971634945
        ]
      }
    },
    {
      "type": "Feature",
      "properties": {
        "norad_id": 43719,
        "name": "HYSIS",
        "group": "resource",
        "lat": 68.55582475350481,
        "lon": -95.2837037669944,
        "alt_km": 626.5249059609305,
        "timestamp": "2025-12-26T19:22:38.551814+00:00",
        "meta_object_name": "HYSIS",
        "meta_object_id": "2018-096A",
        "meta_epoch": "2025-12-26T15:38:02.433120",
        "meta_mean_motion": 14.78682033,
        "meta_eccentricity": 7.734e-05,
        "meta_inclination": 98.0075,
        "meta_ra_of_asc_node": 63.56,
        "meta_arg_of_pericenter": 53.7106,
        "meta_mean_anomaly": 306.4176,
        "meta_ephemeris_type": 0,
        "meta_classification_type": "U",
        "meta_norad_cat_id": 43719,
        "meta_element_set_no": 999,
        "meta_rev_at_epoch": 38192,
        "meta_bstar": 0.0001733335,
        "meta_mean_motion_dot": 1.219e-05,
        "meta_mean_motion_ddot": 0,
        "tle_line1": "1 43719U 18096A   25360.65141705  .00001219  00000+0  17333-3 0  9995",
        "tle_line2": "2 43719  98.0075  63.5600 0000773  53.7106 306.4176 14.78682033381926"
      },
      "geometry": {
        "type": "Point",
        "coordinates": [
          -95.2837037669944,
          68.55582475350481
        ]
      }
    }
  ]
}